     2.10           N: GPS NAV DATA                         RINEX VERSION / TYPE
teqc  2008Oct2      gpsops              20090104 00:09:12UTCPGM / RUN BY / DATE
Linux 2.4.20-8|Pentium IV|gcc -static|Linux|486/DX+         COMMENT
soc2rnx ver 1.20    gpsops               4-Jan-2009 00:09:01COMMENT
Forced Modulo Decimation to 30 seconds                      COMMENT
GLPS                                    MARKER NAME         COMMENT
42005M002                               MARKER NUMBER       COMMENT
-33801.4662 -6377516.5323 -82154.3508                       COMMENT
                                                            COMMENT
This data is provided as a public service by NASA/JPL.      COMMENT
No warranty is expressed or implied regarding suitability   COMMENT
for use.  For further information, contact:                 COMMENT
Dave Stowers, NASA/JPL m/s 238-600                          COMMENT
4800 Oak Grove Drive, Pasadena CA 91109 USA                 COMMENT
                                                            END OF HEADER
 5 09  1  3  2  0  0.0-4.810723476112D-04-6.571099220309D-11 0.000000000000D+00
    3.800000000000D+01-6.337500000000D+01 5.093426447370D-09-1.369682534284D+00
   -3.194436430931D-06 9.362492943183D-03 6.146728992462D-06 5.153641658783D+03
    5.256000000000D+05 5.029141902924D-08 4.473474603316D-02 2.216547727585D-07
    9.450292328779D-01 2.510937500000D+02 1.296461740618D+00-8.424636634217D-09
   -1.650068731986D-10 1.000000000000D+00 1.512000000000D+03 0.000000000000D+00
    4.000000000000D+00 0.000000000000D+00-4.190951585770D-09 3.800000000000D+01
    5.184000000000D+05
 9 09  1  3  1 59 44.0 3.297394141555D-05 1.932676241267D-12 0.000000000000D+00
    4.000000000000D+00 1.706250000000D+01 4.493758611655D-09-2.664176334095D-01
    9.723007678986D-07 2.012897620443D-02 5.723908543587D-06 5.153653186798D+03
    5.255840000000D+05-2.346932888031D-07-9.428367356088D-01 2.067536115646D-07
    9.743269776809D-01 2.793437500000D+02 1.455515845449D+00-8.514283225500D-09
    2.746542975968D-10 1.000000000000D+00 1.512000000000D+03 0.000000000000D+00
    2.000000000000D+00 0.000000000000D+00-5.587935447693D-09 4.000000000000D+00
    5.184000000000D+05
12 09  1  3  2  0  0.0-3.288220614195D-04 3.183231456205D-12 0.000000000000D+00
    9.400000000000D+01-7.003125000000D+01 4.566261631697D-09 8.897994350095D-01
   -3.762543201447D-06 3.085914650001D-03 6.787478923798D-06 5.153747613907D+03
    5.256000000000D+05 2.980232238770D-08 1.431392677422D-01-5.960464477539D-08
    9.660233654250D-01 2.511250000000D+02-8.328538244134D-01-8.139624762329D-09
   -1.764359206929D-10 1.000000000000D+00 1.512000000000D+03 0.000000000000D+00
    2.800000000000D+00 0.000000000000D+00-1.164153218269D-08 9.400000000000D+01
    5.184000000000D+05
14 09  1  3  2  0  0.0-1.734751276672D-04 5.115907697473D-12 0.000000000000D+00
    9.500000000000D+01 1.468750000000D+01 3.680510450891D-09 2.742910981572D+00
    7.543712854385D-07 4.465361940674D-03 9.862706065178D-06 5.153564189911D+03
    5.256000000000D+05 1.676380634308D-08-1.920712123495D+00-6.519258022308D-08
    9.888322741819D-01 2.012500000000D+02-2.103473360006D+00-7.623531836415D-09
   -3.893019302737D-11 1.000000000000D+00 1.512000000000D+03 0.000000000000D+00
    2.800000000000D+00 0.000000000000D+00-9.313225746155D-09 9.500000000000D+01
    5.184000000000D+05
18 09  1  3  2  0  0.0-9.684683755040D-05 3.751665644813D-12 0.000000000000D+00
    4.000000000000D+01-1.134375000000D+01 5.026280793341D-09-1.519405879891D+00
   -5.662441253662D-07 9.888380300254D-03 6.226822733879D-06 5.153746265411D+03
    5.256000000000D+05 1.508742570877D-07-2.970126353022D+00-3.539025783539D-08
    9.448093387356D-01 2.490625000000D+02-2.437634106845D+00-8.313203421148D-09
   -2.439387324559D-10 1.000000000000D+00 1.512000000000D+03 0.000000000000D+00
    2.000000000000D+00 0.000000000000D+00-1.071020960808D-08 4.000000000000D+01
    5.184000000000D+05
21 09  1  3  2  0  0.0 3.561191260815D-05-1.705302565824D-12 0.000000000000D+00
    3.900000000000D+01 5.578125000000D+01 5.455227232111D-09-2.614416755580D-01
    3.026798367500D-06 1.451054064091D-02 6.008893251419D-06 5.153652383804D+03
    5.256000000000D+05 1.601874828339D-07 2.254814110767D+00 1.769512891769D-07
    9.345973454565D-01 2.495625000000D+02-2.657422339759D+00-8.798580781921D-09
    1.725071856167D-10 1.000000000000D+00 1.512000000000D+03 0.000000000000D+00
    2.000000000000D+00 0.000000000000D+00-1.164153218269D-08 3.900000000000D+01
    5.184000000000D+05
22 09  1  3  2  0  0.0 2.072327770293D-04-4.547473508865D-13 0.000000000000D+00
    7.500000000000D+01-1.109375000000D+01 5.080211611205D-09-2.676349170103D+00
   -5.848705768585D-07 4.981201491319D-03 6.310641765594D-06 5.153667612076D+03
    5.256000000000D+05 7.636845111847D-08-2.964123867017D+00 5.029141902924D-08
    9.424662998815D-01 2.469687500000D+02-1.811389863179D+00-8.348204879099D-09
   -2.946551307118D-10 1.000000000000D+00 1.512000000000D+03 0.000000000000D+00
    4.000000000000D+00 0.000000000000D+00-1.816079020500D-08 7.500000000000D+01
    5.184000000000D+05
24 09  1  3  2  0  0.0 1.545054838061D-04 3.183231456205D-12 0.000000000000D+00
    3.000000000000D+01 5.325000000000D+01 5.012351641708D-09-1.634677892404D+00
    2.739951014519D-06 7.081848219968D-03 6.379559636116D-06 5.153664215088D+03
    5.256000000000D+05-1.154839992523D-07 2.284493526508D+00-3.911554813385D-08
    9.512620743522D-01 2.538750000000D+02-6.473398266564D-01-8.391778122671D-09
    2.000083311498D-10 1.000000000000D+00 1.512000000000D+03 0.000000000000D+00
    2.000000000000D+00 0.000000000000D+00-1.396983861923D-09 3.000000000000D+01
    5.184000000000D+05
29 09  1  3  2  0  0.0-2.085743471980D-05 2.501110429876D-12 0.000000000000D+00
    4.000000000000D+01 5.312500000000D-01 4.446970948475D-09-1.897190753153D-01
    7.264316082001D-08 3.214391064830D-03 1.091510057449D-05 5.153768712997D+03
    5.256000000000D+05-6.891787052155D-08 1.209580566103D+00-1.117587089539D-08
    9.595924565461D-01 1.695625000000D+02-1.342906795881D+00-7.963188841636D-09
    7.786038605475D-11 1.000000000000D+00 1.512000000000D+03 0.000000000000D+00
    2.000000000000D+00 0.000000000000D+00-8.847564458847D-09 4.000000000000D+01
    5.184000000000D+05
30 09  1  3  2  0  0.0 1.174216158688D-04 2.273736754432D-12 0.000000000000D+00
    8.400000000000D+01-6.515625000000D+01 4.843773191167D-09-1.903568754136D+00
   -3.280118107796D-06 1.115299761295D-02 6.420537829399D-06 5.153656080246D+03
    5.256000000000D+05 1.806765794754D-07 9.774350217491D-02 1.061707735062D-07
    9.509797370146D-01 2.479375000000D+02 1.415789724228D+00-8.163554330520D-09
   -1.517920370333D-10 1.000000000000D+00 1.512000000000D+03 0.000000000000D+00
    4.000000000000D+00 0.000000000000D+00-7.916241884232D-09 8.400000000000D+01
    5.184000000000D+05
22 09  1  3  1 59 44.0 2.072323113680D-04-4.547473508865D-13 0.000000000000D+00
    7.000000000000D+00-1.109375000000D+01 5.080211611205D-09-2.678682533217D+00
   -5.848705768585D-07 4.981203237548D-03 6.310641765594D-06 5.153667615891D+03
    5.255840000000D+05 7.636845111847D-08-2.964123717799D+00 5.029141902924D-08
    9.424662984186D-01 2.469687500000D+02-1.811390266944D+00-8.348204879099D-09
   -2.946551307118D-10 1.000000000000D+00 1.512000000000D+03 0.000000000000D+00
    2.000000000000D+00 0.000000000000D+00-1.816079020500D-08 7.000000000000D+00
    5.190900000000D+05
31 09  1  3  2  0  0.0-4.615774378181D-05-1.477928890381D-12 0.000000000000D+00
    7.400000000000D+01 1.562500000000D+01 4.478400829085D-09 6.000918751382D-01
    7.227063179016D-07 7.083845441230D-03 5.990266799927D-06 5.153609420776D+03
    5.256000000000D+05-2.048909664154D-08-9.105691252019D-01-9.499490261078D-08
    9.707960025330D-01 2.713125000000D+02-1.215751311093D+00-8.294274061236D-09
    2.185805333280D-10 1.000000000000D+00 1.512000000000D+03 0.000000000000D+00
    2.800000000000D+00 0.000000000000D+00-1.303851604462D-08 7.400000000000D+01
    5.193000000000D+05
 6 09  1  3  1 59 44.0 1.042354851961D-04-1.136868377216D-11 0.000000000000D+00
    1.800000000000D+01-9.937500000000D+00 5.034138263494D-09-1.601457304976D+00
   -3.185123205185D-07 5.613149958663D-03 1.129880547523D-05 5.153714916229D+03
    5.255840000000D+05 1.303851604462D-08 1.142116669606D+00 1.378357410431D-07
    9.334407507197D-01 1.463125000000D+02-1.491499950960D+00-8.239271770169D-09
    5.035924052165D-11 1.000000000000D+00 1.512000000000D+03 0.000000000000D+00
    2.000000000000D+00 0.000000000000D+00-4.656612873077D-09 1.800000000000D+01
    5.201100000000D+05
14 09  1  3  1 59 44.0-1.734769903123D-04 5.115907697473D-12 0.000000000000D+00
    1.100000000000D+01 1.468750000000D+01 3.680510450891D-09 2.740577565793D+00
    7.543712854385D-07 4.465365665965D-03 9.862706065178D-06 5.153564197540D+03
    5.255840000000D+05 1.676380634308D-08-1.920712000610D+00-6.519258022308D-08
    9.888322683302D-01 2.012500000000D+02-2.103473844232D+00-7.623531836415D-09
   -3.893019302737D-11 1.000000000000D+00 1.512000000000D+03 0.000000000000D+00
    2.000000000000D+00 0.000000000000D+00-9.313225746155D-09 1.100000000000D+01
    5.232000000000D+05
 5 09  1  3  4  0  0.0-4.815454594791D-04-6.571099220309D-11 0.000000000000D+00
    3.900000000000D+01-5.812500000000D+01 5.123070539309D-09-3.193873208610D-01
   -3.045424818993D-06 9.363143704832D-03 5.984678864479D-06 5.153643693924D+03
    5.328000000000D+05-7.450580596924D-08 4.467290409720D-02 7.450580596924D-08
    9.450274759133D-01 2.567500000000D+02 1.296370842203D+00-8.604644132252D-09
   -1.167905790821D-10 1.000000000000D+00 1.512000000000D+03 0.000000000000D+00
    4.000000000000D+00 0.000000000000D+00-4.190951585770D-09 3.900000000000D+01
    5.256000000000D+05
